EYESAT-1 (AO-27)        
1 22825U 93061C   16138.43730254  .00000044  00000-0  34721-4 0  9994
2 22825  98.7566  94.4983 0009349  52.4634 307.7396 14.29954622180848
CUTE-1 (CO-55)          
1 27844U 03031E   16138.49204219  .00000148  00000-0  86753-4 0  9998
2 27844  98.6927 147.2189 0010719  56.3185 303.9013 14.21946981668088
CUBESAT XI-IV (CO-57)   
1 27848U 03031J   16137.96398430  .00000122  00000-0  75357-4 0  9992
2 27848  98.7025 146.7752 0010748  65.0801 295.1492 14.21573503667871
CUBESAT XI-V (CO-58)    
1 28895U 05043F   16138.73299141  .00000426  00000-0  91256-4 0  9998
2 28895  97.8309 314.2051 0015906 318.9778  41.0227 14.63185986562651
CUTE-1.7+APD II (CO-65) 
1 32785U 08021C   16138.49576923  .00000810  00000-0  94846-4 0  9994
2 32785  97.6054 173.9846 0014285  44.0056 316.2295 14.87543219436066
COMPASS-1               
1 32787U 08021E   16138.67603758  .00001614  00000-0  16456-3 0  9996
2 32787  97.6057 180.4360 0013268  24.4989 335.6858 14.91963381436513
AAUSAT-II               
1 32788U 08021F   16139.08812122  .00001543  00000-0  15296-3 0  9992
2 32788  97.6062 182.9499 0012539  18.6745 341.4932 14.93162991436704
DELFI-C3 (DO-64)        
1 32789U 08021G   16138.84141317  .00004279  00000-0  32114-3 0  9994
2 32789  97.6095 198.5964 0013048  10.8010 349.3493 15.03096419437440
CANX-2                  
1 32790U 08021H   16138.54227140  .00000721  00000-0  85498-4 0  9994
2 32790  97.6013 172.7144 0014986  44.7274 315.5148 14.87308917436021
SEEDS II (CO-66)        
1 32791U 08021J   16139.09839626  .00001055  00000-0  11556-3 0  9998
2 32791  97.6061 177.6220 0014347  32.3187 327.8907 14.89732601436315
SWISSCUBE               
1 35932U 09051B   16138.13902734  .00000409  00000-0  10402-3 0  9998
2 35932  98.4436 264.8596 0008274  37.6522 322.5253 14.55805487352698
BEESAT                  
1 35933U 09051C   16137.95480296  .00000354  00000-0  91334-4 0  9995
2 35933  98.4461 265.7521 0006738  52.1917 307.9889 14.55949135352767
ITUPSAT 1               
1 35935U 09051E   16138.89486657  .00000312  00000-0  83180-4 0  9992
2 35935  98.4570 266.9516 0008828  39.4759 320.7079 14.55160828352747
TISAT 1                 
1 36799U 10035E   16139.09699882  .00001313  00000-0  14283-3 0  9993
2 36799  98.0274 248.9165 0012720 178.1538 181.9728 14.89768355316941
M-CUBED & EXP-1 PRIME   
1 37855U 11061F   16138.52655719  .00003854  00000-0  21567-3 0  9990
2 37855 101.7208 163.7482 0187711 168.1626 192.4089 15.00912271247391
HORYU 2                 
1 38340U 12025D   16138.51000278  .00000783  00000-0  12444-3 0  9996
2 38340  98.3532 123.0830 0013042 107.8759 252.3872 14.75004537214950
STRAND-1                
1 39090U 13009E   16138.79444526  .00000083  00000-0  44845-4 0  9994
2 39090  98.5864 341.1957 0009969  38.0600 322.1288 14.34895395168779
BRITE-AUSTRIA           
1 39091U 13009F   16138.13063514  .00000092  00000-0  47801-4 0  9992
2 39091  98.5819 340.0662 0011394  46.7580 313.4554 14.34974226168690
UNIBRITE                
1 39092U 13009G   16139.14112250  .00000073  00000-0  41282-4 0  9993
2 39092  98.5821 340.8141 0010122  38.1256 322.0644 14.34847725168821
AIST-2                  
1 39133U 13015D   16138.76709156  .00000716  00000-0  64107-4 0  9995
2 39133  64.8739  94.7935 0003315 294.5358 138.7767 15.03866191168838
SOMP                    
1 39134U 13015E   16139.16413764  .00004212  00000-0  22917-3 0  9995
2 39134  64.8724  59.5258 0008490 272.5643  87.4510 15.15811630169560
BEESAT-2                
1 39136U 13015G   16138.86169504  .00003411  00000-0  19987-3 0  9996
2 39136  64.8730  66.1833 0007813 267.2054  92.8176 15.13507813169412
NEE-01 PEGASUS          
1 39151U 13018B   16138.75234889  .00000582  00000-0  84968-4 0  9991
2 39151  97.9967 226.5061 0015939 247.3703 112.5823 14.79442189165073
CUBEBUG-1 (CAPITAN BETO)
1 39153U 13018D   16138.79249755  .00000652  00000-0  93457-4 0  9996
2 39153  97.9977 226.9778 0015869 246.1484 113.8065 14.79861259165109
ESTCUBE 1               
1 39161U 13021C   16139.13301550  .00000422  00000-0  75746-4 0  9996
2 39161  98.0488 223.8074 0008869 333.5144  26.5619 14.71648445162641
POPACS 1                
1 39268U 13055D   16138.49235396  .00007510  00000-0  22578-3 0  9992
2 39268  81.0085  59.5784 0669706 296.0539  57.3177 14.26237951135692
POPACS 2                
1 39269U 13055E   16138.53145439  .00007777  00000-0  23693-3 0  9990
2 39269  81.0204  67.4968 0713041 317.4125  37.3789 14.16823243135218
POPACS 3                
1 39270U 13055F   16138.54482022  .00006623  00000-0  21509-3 0  9998
2 39270  81.0222  71.6369 0733459 331.2042  25.0413 14.11104622134933
PHONESAT 2.4            
1 39381U 13064B   16135.33869072  .00035898  00000-0  39013-3 0  9994
2 39381  40.4936 238.5112 0003100  88.2545 271.8815 15.62691327139579
FIREFLY                 
1 39404U 13064AA  16138.56613146  .00026296  00000-0  38838-3 0  9993
2 39404  40.5068 237.5425 0003192 141.0140 219.0911 15.54687945139313
ZACUBE-1 (TSHEPISOSAT)  
1 39417U 13066B   16138.86249653  .00000812  00000-0  10977-3 0  9990
2 39417  97.6825 193.0265 0061136 121.2463 239.4759 14.80370153134284
WNISAT-1                
1 39423U 13066H   16138.99578537  .00000159  00000-0  41615-4 0  9995
2 39423  97.6716 154.5858 0174709 233.8393 124.6541 14.52686259131853
TRITON-1                
1 39427U 13066M   16138.53600862  .00000588  00000-0  10264-3 0  9997
2 39427  97.6698 173.7906 0115058 174.6441 185.6026 14.67166356133024
GOMX 1                  
1 39430U 13066Q   16139.07035577  .00000396  00000-0  81765-4 0  9998
2 39430  97.6711 162.3056 0151493 210.1583 149.0841 14.58573485132337
BRITE-PL                
1 39431U 13066R   16138.86811909  .00000200  00000-0  53593-4 0  9998
2 39431  97.6784 146.5708 0201521 259.8182  98.0230 14.46714379131283
HUMSAT-D                
1 39433U 13066T   16138.73715745  .00001801  00000-0  18700-3 0  9995
2 39433  97.6997 206.4858 0033209  90.6622 269.8402 14.90766858135088
EAGLE 2                 
1 39436U 13066W   16138.46271838  .00024570  00000-0  10997-2 0  9995
2 39436  97.7161 224.4402 0016049  38.8695 321.3691 15.21157412136201
CUBEBUG-2 (LO-74)       
1 39440U 13066AA  16138.69487529  .00000786  00000-0  11746-3 0  9998
2 39440  97.6763 185.3329 0082292 141.6476 219.0625 14.75132947133783
NEE-02 KRYSAOR          
1 39441U 13066AB  16139.10032677  .00000529  00000-0  82653-4 0  9997
2 39441  97.6743 184.9959 0083501 142.3236 218.3862 14.74383321133768
FUNCUBE-1 (AO-73)       
1 39444U 13066AE  16138.15061529  .00001049  00000-0  13770-3 0  9993
2 39444  97.6837 192.9174 0060378 121.7175 238.9943 14.81031949132988
UWE-3                   
1 39446U 13066AG  16139.13878247  .00000771  00000-0  11011-3 0  9994
2 39446  97.6786 189.3463 0072125 130.3671 230.3868 14.77656955132857
BRITE-TORONTO           
1 40020U 14033L   16139.13878573  .00000227  00000-0  47402-4 0  9991
2 40020  97.8920  20.3331 0088638 142.0031 218.7472 14.66252789102205
DUCHIFAT-1              
1 40021U 14033M   16138.98171550  .00001199  00000-0  13247-3 0  9993
2 40021  97.9338  45.4526 0013676 155.8498 204.3363 14.89259702103762
FLOCK 1C-10             
1 40023U 14033P   16139.21360418  .00000435  00000-0  53525-4 0  9991
2 40023  97.9374  45.3146 0012392 159.0973 201.0703 14.87928043103759
NANOSATC-BR1            
1 40024U 14033Q   16139.15229865  .00001116  00000-0  12552-3 0  9996
2 40024  97.9314  45.0603 0012941 155.0650 205.1194 14.88676180103760
QB50P1                  
1 40025U 14033R   16139.13473987  .00000820  00000-0  95454-4 0  9995
2 40025  97.9309  44.6003 0013103 156.6162 203.5653 14.87982685103738
FLOCK 1C-7              
1 40026U 14033S   16139.15013733  .00001308  00000-0  14645-3 0  9991
2 40026  97.9372  45.4828 0011866 157.4642 202.7108 14.88559756103768
FLOCK 1C-1              
1 40027U 14033T   16138.67118810  .00000485  00000-0  58802-4 0  9999
2 40027  97.9375  44.8673 0012876 159.2299 200.9407 14.88077200103685
POPSAT-HIP-1            
1 40028U 14033U   16139.06640851  .00000827  00000-0  96426-4 0  9993
2 40028  97.9335  44.6914 0014181 155.0601 205.1298 14.87862907103714
FLOCK 1C-2              
1 40029U 14033V   16139.16497094  .00000321  00000-0  41049-4 0  9994
2 40029  97.9372  45.2703 0014450 154.1217 206.0735 14.88028831103741
FLOCK 1C-4              
1 40031U 14033X   16139.16139278  .00000229  00000-0  31094-4 0  9990
2 40031  97.9387  45.2913 0014728 151.6195 208.5819 14.87995089103734
QB50P2                  
1 40032U 14033Y   16138.79716979  .00000916  00000-0  10699-3 0  9998
2 40032  97.9296  43.7501 0012616 151.6539 208.5366 14.87547838103659
FLOCK 1C-11             
1 40033U 14033Z   16139.19535390  .00001771  00000-0  19291-3 0  9997
2 40033  97.9388  45.7833 0012462 146.7579 213.4412 14.89234570103789
ANTELSAT                
1 40034U 14033AA  16139.21313269  .00000563  00000-0  92232-4 0  9995
2 40034  97.9076  28.2841 0060365 120.9066 239.8131 14.73362047102760
FLOCK 1C-9              
1 40035U 14033AB  16139.16637954  .00000283  00000-0  36836-4 0  9997
2 40035  97.9399  45.4701 0012548 146.9268 213.2750 14.88076627103741
FLOCK 1C-6              
1 40036U 14033AC  16139.21553691  .00000268  00000-0  35151-4 0  9991
2 40036  97.9396  45.6202 0012501 148.0166 212.1778 14.88202230103767
PERSEUS-M2              
1 40037U 14033AD  16139.03444392  .00000190  00000-0  28082-4 0  9998
2 40037  97.9331  43.3868 0014673 153.5823 206.6151 14.86023653103629
FLOCK 1C-5              
1 40038U 14033AE  16139.22611672  .00000227  00000-0  30678-4 0  9992
2 40038  97.9391  45.5068 0014756 147.0834 213.1336 14.88211187103759
PERSEUS-M1              
1 40039U 14033AF  16139.06946193  .00000382  00000-0  50401-4 0  9992
2 40039  97.9343  43.1649 0014760 148.9254 211.2832 14.85653401103618
